{"fetched_at":"2026-04-04T02:03:33Z","count":15623,"tles":[{"name":"STARLINK-37220","line1":"1 68398U 26063U   26092.75002315 -.02283890  15546-2 -43589-2 0  9991","line2":"2 68398  97.2815 233.5577 0002091  66.0397 120.4043 16.00790582  2322","category":"Starlink"}]}